CCSDS_OMM_VERS = 2.0
CREATION_DATE  = 
ORIGINATOR     = 

OBJECT_NAME    = UNKNOWN
OBJECT_ID      = 
CENTER_NAME    = EARTH
REF_FRAME      = TEME
TIME_SYSTEM    = UTC
MEAN_ELEMENT_THEORY = SGP/SGP4

EPOCH          = 2026-01-18T15:15:46.010880
MEAN_MOTION    = 13.39759349
ECCENTRICITY   = .05254767
INCLINATION    = 73.1466
RA_OF_ASC_NODE = 352.6355
ARG_OF_PERICENTER = 159.5540
MEAN_ANOMALY   = 202.7484

EPHEMERIS_TYPE = 0
CLASSIFICATION_TYPE = U
NORAD_CAT_ID   = 270224
ELEMENT_SET_NO = 999
REV_AT_EPOCH   = 29299
BSTAR          = .1643787E-2
MEAN_MOTION_DOT = .1983E-4
MEAN_MOTION_DDOT = 0

CCSDS_OMM_VERS = 2.0
CREATION_DATE  = 
ORIGINATOR     = 

OBJECT_NAME    = UNKNOWN
OBJECT_ID      = 
CENTER_NAME    = EARTH
REF_FRAME      = TEME
TIME_SYSTEM    = UTC
MEAN_ELEMENT_THEORY = SGP/SGP4

EPOCH          = 2026-01-14T01:59:26.635488
MEAN_MOTION    = 11.67018884
ECCENTRICITY   = .03986659
INCLINATION    = 101.2657
RA_OF_ASC_NODE = 116.3379
ARG_OF_PERICENTER = 138.4013
MEAN_ANOMALY   = 224.8073

EPHEMERIS_TYPE = 0
CLASSIFICATION_TYPE = U
NORAD_CAT_ID   = 270226
ELEMENT_SET_NO = 999
REV_AT_EPOCH   = 25884
BSTAR          = -.32245744E-3
MEAN_MOTION_DOT = -.52E-6
MEAN_MOTION_DDOT = 0

CCSDS_OMM_VERS = 2.0
CREATION_DATE  = 
ORIGINATOR     = 

OBJECT_NAME    = UNKNOWN
OBJECT_ID      = 
CENTER_NAME    = EARTH
REF_FRAME      = TEME
TIME_SYSTEM    = UTC
MEAN_ELEMENT_THEORY = SGP/SGP4

EPOCH          = 2026-02-05T08:29:27.208896
MEAN_MOTION    = 12.24561002
ECCENTRICITY   = .01398724
INCLINATION    = 74.0075
RA_OF_ASC_NODE = 269.9365
ARG_OF_PERICENTER = 276.7561
MEAN_ANOMALY   = 81.7576

EPHEMERIS_TYPE = 0
CLASSIFICATION_TYPE = U
NORAD_CAT_ID   = 270228
ELEMENT_SET_NO = 999
REV_AT_EPOCH   = 27247
BSTAR          = .71439318E-4
MEAN_MOTION_DOT = -.8E-7
MEAN_MOTION_DDOT = 0

CCSDS_OMM_VERS = 2.0
CREATION_DATE  = 
ORIGINATOR     = 

OBJECT_NAME    = UNKNOWN
OBJECT_ID      = 
CENTER_NAME    = EARTH
REF_FRAME      = TEME
TIME_SYSTEM    = UTC
MEAN_ELEMENT_THEORY = SGP/SGP4

EPOCH          = 2026-01-31T00:53:06.631584
MEAN_MOTION    = 13.91177413
ECCENTRICITY   = .01418096
INCLINATION    = 98.9385
RA_OF_ASC_NODE = 316.4348
ARG_OF_PERICENTER = 272.8477
MEAN_ANOMALY   = 85.6460

EPHEMERIS_TYPE = 0
CLASSIFICATION_TYPE = U
NORAD_CAT_ID   = 270229
ELEMENT_SET_NO = 999
REV_AT_EPOCH   = 30885
BSTAR          = .64484183E-3
MEAN_MOTION_DOT = .837E-5
MEAN_MOTION_DDOT = 0

CCSDS_OMM_VERS = 2.0
CREATION_DATE  = 
ORIGINATOR     = 

OBJECT_NAME    = UNKNOWN
OBJECT_ID      = 
CENTER_NAME    = EARTH
REF_FRAME      = TEME
TIME_SYSTEM    = UTC
MEAN_ELEMENT_THEORY = SGP/SGP4

EPOCH          = 2026-02-04T04:09:04.671936
MEAN_MOTION    = 12.20881262
ECCENTRICITY   = .03389645
INCLINATION    = 103.0409
RA_OF_ASC_NODE = 7.6137
ARG_OF_PERICENTER = 331.7072
MEAN_ANOMALY   = 26.5930

EPHEMERIS_TYPE = 0
CLASSIFICATION_TYPE = U
NORAD_CAT_ID   = 270230
ELEMENT_SET_NO = 999
REV_AT_EPOCH   = 26963
BSTAR          = .20991681E-1
MEAN_MOTION_DOT = .259E-4
MEAN_MOTION_DDOT = 0

CCSDS_OMM_VERS = 2.0
CREATION_DATE  = 
ORIGINATOR     = 

OBJECT_NAME    = UNKNOWN
OBJECT_ID      = 
CENTER_NAME    = EARTH
REF_FRAME      = TEME
TIME_SYSTEM    = UTC
MEAN_ELEMENT_THEORY = SGP/SGP4

EPOCH          = 2026-01-21T16:37:12.427680
MEAN_MOTION    = 12.91994454
ECCENTRICITY   = .0706621
INCLINATION    = 72.9682
RA_OF_ASC_NODE = 11.4489
ARG_OF_PERICENTER = 318.3579
MEAN_ANOMALY   = 36.5677

EPHEMERIS_TYPE = 0
CLASSIFICATION_TYPE = U
NORAD_CAT_ID   = 270232
ELEMENT_SET_NO = 999
REV_AT_EPOCH   = 28315
BSTAR          = .97267221E-2
MEAN_MOTION_DOT = .8095E-4
MEAN_MOTION_DDOT = 0

CCSDS_OMM_VERS = 2.0
CREATION_DATE  = 
ORIGINATOR     = 

OBJECT_NAME    = UNKNOWN
OBJECT_ID      = 
CENTER_NAME    = EARTH
REF_FRAME      = TEME
TIME_SYSTEM    = UTC
MEAN_ELEMENT_THEORY = SGP/SGP4

EPOCH          = 2026-02-04T06:18:40.611456
MEAN_MOTION    = 14.38457685
ECCENTRICITY   = .00317049
INCLINATION    = 98.6255
RA_OF_ASC_NODE = 41.0245
ARG_OF_PERICENTER = 207.3970
MEAN_ANOMALY   = 152.5546

EPHEMERIS_TYPE = 0
CLASSIFICATION_TYPE = U
NORAD_CAT_ID   = 270233
ELEMENT_SET_NO = 999
REV_AT_EPOCH   = 31618
BSTAR          = .18241334E-3
MEAN_MOTION_DOT = .515E-5
MEAN_MOTION_DDOT = 0

CCSDS_OMM_VERS = 2.0
CREATION_DATE  = 
ORIGINATOR     = 

OBJECT_NAME    = UNKNOWN
OBJECT_ID      = 
CENTER_NAME    = EARTH
REF_FRAME      = TEME
TIME_SYSTEM    = UTC
MEAN_ELEMENT_THEORY = SGP/SGP4

EPOCH          = 2026-01-31T15:06:57.502944
MEAN_MOTION    = 12.95507750
ECCENTRICITY   = .00293612
INCLINATION    = 90.2372
RA_OF_ASC_NODE = 0.5002
ARG_OF_PERICENTER = 162.9464
MEAN_ANOMALY   = 197.2649

EPHEMERIS_TYPE = 0
CLASSIFICATION_TYPE = U
NORAD_CAT_ID   = 270236
ELEMENT_SET_NO = 999
REV_AT_EPOCH   = 28468
BSTAR          = -.49364117E-3
MEAN_MOTION_DOT = -.132E-5
MEAN_MOTION_DDOT = 0

CCSDS_OMM_VERS = 2.0
CREATION_DATE  = 
ORIGINATOR     = 

OBJECT_NAME    = UNKNOWN
OBJECT_ID      = 
CENTER_NAME    = EARTH
REF_FRAME      = TEME
TIME_SYSTEM    = UTC
MEAN_ELEMENT_THEORY = SGP/SGP4

EPOCH          = 2026-01-30T20:54:55.541088
MEAN_MOTION    = 12.96066494
ECCENTRICITY   = .00225877
INCLINATION    = 90.2460
RA_OF_ASC_NODE = 4.1160
ARG_OF_PERICENTER = 270.6345
MEAN_ANOMALY   = 89.2187

EPHEMERIS_TYPE = 0
CLASSIFICATION_TYPE = U
NORAD_CAT_ID   = 270237
ELEMENT_SET_NO = 999
REV_AT_EPOCH   = 28348
BSTAR          = -.10236094E-2
MEAN_MOTION_DOT = -.284E-5
MEAN_MOTION_DDOT = 0

CCSDS_OMM_VERS = 2.0
CREATION_DATE  = 
ORIGINATOR     = 

OBJECT_NAME    = UNKNOWN
OBJECT_ID      = 
CENTER_NAME    = EARTH
REF_FRAME      = TEME
TIME_SYSTEM    = UTC
MEAN_ELEMENT_THEORY = SGP/SGP4

EPOCH          = 2026-01-24T08:16:50.087424
MEAN_MOTION    = 12.80790081
ECCENTRICITY   = .01127865
INCLINATION    = 63.5232
RA_OF_ASC_NODE = 64.1410
ARG_OF_PERICENTER = 68.2594
MEAN_ANOMALY   = 293.0361

EPHEMERIS_TYPE = 0
CLASSIFICATION_TYPE = U
NORAD_CAT_ID   = 270238
ELEMENT_SET_NO = 999
REV_AT_EPOCH   = 27993
BSTAR          = .11674628E-2
MEAN_MOTION_DOT = .201E-5
MEAN_MOTION_DDOT = 0

CCSDS_OMM_VERS = 2.0
CREATION_DATE  = 
ORIGINATOR     = 

OBJECT_NAME    = UNKNOWN
OBJECT_ID      = 
CENTER_NAME    = EARTH
REF_FRAME      = TEME
TIME_SYSTEM    = UTC
MEAN_ELEMENT_THEORY = SGP/SGP4

EPOCH          = 2026-01-23T01:10:06.795264
MEAN_MOTION    = 12.27391986
ECCENTRICITY   = .01610091
INCLINATION    = 82.4316
RA_OF_ASC_NODE = 304.3016
ARG_OF_PERICENTER = 290.6485
MEAN_ANOMALY   = 67.7386

EPHEMERIS_TYPE = 0
CLASSIFICATION_TYPE = U
NORAD_CAT_ID   = 270239
ELEMENT_SET_NO = 999
REV_AT_EPOCH   = 26711
BSTAR          = .57897235E-2
MEAN_MOTION_DOT = .694E-5
MEAN_MOTION_DDOT = 0

CCSDS_OMM_VERS = 2.0
CREATION_DATE  = 
ORIGINATOR     = 

OBJECT_NAME    = UNKNOWN
OBJECT_ID      = 
CENTER_NAME    = EARTH
REF_FRAME      = TEME
TIME_SYSTEM    = UTC
MEAN_ELEMENT_THEORY = SGP/SGP4

EPOCH          = 2026-02-04T04:53:08.433312
MEAN_MOTION    = 12.63960722
ECCENTRICITY   = .00850108
INCLINATION    = 82.4359
RA_OF_ASC_NODE = 210.6806
ARG_OF_PERICENTER = 158.2093
MEAN_ANOMALY   = 202.2650

EPHEMERIS_TYPE = 0
CLASSIFICATION_TYPE = U
NORAD_CAT_ID   = 270240
ELEMENT_SET_NO = 999
REV_AT_EPOCH   = 27518
BSTAR          = .16667564E-1
MEAN_MOTION_DOT = .3102E-4
MEAN_MOTION_DDOT = 0

CCSDS_OMM_VERS = 2.0
CREATION_DATE  = 
ORIGINATOR     = 

OBJECT_NAME    = UNKNOWN
OBJECT_ID      = 
CENTER_NAME    = EARTH
REF_FRAME      = TEME
TIME_SYSTEM    = UTC
MEAN_ELEMENT_THEORY = SGP/SGP4

EPOCH          = 2026-01-28T04:10:30.347040
MEAN_MOTION    = 12.94312184
ECCENTRICITY   = .00285174
INCLINATION    = 90.2467
RA_OF_ASC_NODE = 3.1565
ARG_OF_PERICENTER = 259.9383
MEAN_ANOMALY   = 99.8518

EPHEMERIS_TYPE = 0
CLASSIFICATION_TYPE = U
NORAD_CAT_ID   = 270241
ELEMENT_SET_NO = 999
REV_AT_EPOCH   = 28259
BSTAR          = .8731273E-3
MEAN_MOTION_DOT = .25E-5
MEAN_MOTION_DDOT = 0

CCSDS_OMM_VERS = 2.0
CREATION_DATE  = 
ORIGINATOR     = 

OBJECT_NAME    = UNKNOWN
OBJECT_ID      = 
CENTER_NAME    = EARTH
REF_FRAME      = TEME
TIME_SYSTEM    = UTC
MEAN_ELEMENT_THEORY = SGP/SGP4

EPOCH          = 2026-01-31T14:50:02.518080
MEAN_MOTION    = 12.98553140
ECCENTRICITY   = .00451822
INCLINATION    = 90.2405
RA_OF_ASC_NODE = 4.4563
ARG_OF_PERICENTER = 9.1171
MEAN_ANOMALY   = 351.0761

EPHEMERIS_TYPE = 0
CLASSIFICATION_TYPE = U
NORAD_CAT_ID   = 270242
ELEMENT_SET_NO = 999
REV_AT_EPOCH   = 28372
BSTAR          = .12000785E-2
MEAN_MOTION_DOT = .363E-5
MEAN_MOTION_DDOT = 0

CCSDS_OMM_VERS = 2.0
CREATION_DATE  = 
ORIGINATOR     = 

OBJECT_NAME    = UNKNOWN
OBJECT_ID      = 
CENTER_NAME    = EARTH
REF_FRAME      = TEME
TIME_SYSTEM    = UTC
MEAN_ELEMENT_THEORY = SGP/SGP4

EPOCH          = 2026-01-15T00:05:20.905152
MEAN_MOTION    = 11.23973987
ECCENTRICITY   = .07973973
INCLINATION    = 102.1052
RA_OF_ASC_NODE = 93.9176
ARG_OF_PERICENTER = 146.4331
MEAN_ANOMALY   = 218.9904

EPHEMERIS_TYPE = 0
CLASSIFICATION_TYPE = U
NORAD_CAT_ID   = 270245
ELEMENT_SET_NO = 999
REV_AT_EPOCH   = 2195
BSTAR          = -.3963085E-1
MEAN_MOTION_DOT = -.2628E-4
MEAN_MOTION_DDOT = 0

CCSDS_OMM_VERS = 2.0
CREATION_DATE  = 
ORIGINATOR     = 

OBJECT_NAME    = UNKNOWN
OBJECT_ID      = 
CENTER_NAME    = EARTH
REF_FRAME      = TEME
TIME_SYSTEM    = UTC
MEAN_ELEMENT_THEORY = SGP/SGP4

EPOCH          = 2026-02-03T11:45:05.067936
MEAN_MOTION    = 10.71366264
ECCENTRICITY   = .09898486
INCLINATION    = 101.9072
RA_OF_ASC_NODE = 303.8872
ARG_OF_PERICENTER = 168.1218
MEAN_ANOMALY   = 194.5052

EPHEMERIS_TYPE = 0
CLASSIFICATION_TYPE = U
NORAD_CAT_ID   = 270246
ELEMENT_SET_NO = 999
REV_AT_EPOCH   = 23541
BSTAR          = -.71473536E-2
MEAN_MOTION_DOT = -.342E-5
MEAN_MOTION_DDOT = 0

